{
  "norad_id": 51892,
  "name": "STARLINK-3587",
  "history": [
    {
      "epoch": "2026-03-28T21:28:36.593472Z",
      "apogee_km": 540.6423892706844,
      "perigee_km": 538.8299065059373,
      "latitude_deg": -1.6517377893779922e-05,
      "longitude_deg": 124.44565686539683,
      "height_km": 540.6538925840351,
      "semi_major_axis_km": 6917.87314788831,
      "eccentricity": 0.000131,
      "inclination_deg": 53.2171,
      "raan_deg": 272.9069,
      "arg_perigee_deg": 91.3909,
      "mean_anomaly_deg": 268.7233,
      "mean_motion_rev_day": 15.08842369
    }
  ]
}